{
  "type": "FeatureCollection",
  "features": [
    {
      "type": "Feature",
      "properties": { "name": "Astana-Karaganda Railway" },
      "geometry": {
        "type": "LineString",
        "coordinates": [
          [71.4306, 51.1280],
          [71.4700, 51.0900],
          [71.5500, 51.0200],
          [71.7000, 50.9200],
          [71.8500, 50.8000],
          [71.9500, 50.7000],
          [72.0500, 50.5800],
          [72.1800, 50.4500],
          [72.3000, 50.3200],
          [72.4500, 50.2000],
          [72.6500, 50.0800],
          [72.8500, 49.9500],
          [73.0000, 49.8800],
          [73.0855, 49.8348]
        ]
      }
    },
    {
      "type": "Feature",
      "properties": { "name": "Astana", "type": "station" },
      "geometry": { "type": "Point", "coordinates": [71.4306, 51.1280] }
    },
    {
      "type": "Feature",
      "properties": { "name": "Akkol", "type": "station" },
      "geometry": { "type": "Point", "coordinates": [71.9500, 50.7000] }
    },
    {
      "type": "Feature",
      "properties": { "name": "Soran", "type": "station" },
      "geometry": { "type": "Point", "coordinates": [72.4500, 50.2000] }
    },
    {
      "type": "Feature",
      "properties": { "name": "Temirtau", "type": "station" },
      "geometry": { "type": "Point", "coordinates": [72.8500, 49.9500] }
    },
    {
      "type": "Feature",
      "properties": { "name": "Karaganda", "type": "station" },
      "geometry": { "type": "Point", "coordinates": [73.0855, 49.8348] }
    }
  ]
}
